[{"OBJECT_NAME":"ZHUHAI-1 OVS-02","OBJECT_ID":"2018-040B","EPOCH":"2026-03-09T23:28:43.397184","MEAN_MOTION":15.23701521,"ECCENTRICITY":0.00020716,"INCLINATION":97.0496,"RA_OF_ASC_NODE":92.136,"ARG_OF_PERICENTER":226.172,"MEAN_ANOMALY":133.9347,"EPHEMERIS_TYPE":0,"CLASSIFICATION_TYPE":"U","NORAD_CAT_ID":43440,"ELEMENT_SET_NO":999,"REV_AT_EPOCH":43760,"BSTAR":0.0003025193,"MEAN_MOTION_DOT":7.199e-5,"MEAN_MOTION_DDOT":0},{"OBJECT_NAME":"CZ-6A DEB","OBJECT_ID":"2024-140NJ","EPOCH":"2026-03-09T15:30:01.982592","MEAN_MOTION":15.1004937,"ECCENTRICITY":0.00567225,"INCLINATION":88.9288,"RA_OF_ASC_NODE":275.3548,"ARG_OF_PERICENTER":176.1403,"MEAN_ANOMALY":184.0287,"EPHEMERIS_TYPE":0,"CLASSIFICATION_TYPE":"U","NORAD_CAT_ID":61092,"ELEMENT_SET_NO":999,"REV_AT_EPOCH":8278,"BSTAR":0.0051635532,"MEAN_MOTION_DOT":0.00088127,"MEAN_MOTION_DDOT":0}]
